[{"OBJECT_NAME":"STARLINK-2659","OBJECT_ID":"2021-040AR","EPOCH":"2026-03-10T00:00:02.999808","MEAN_MOTION":15.25319872,"ECCENTRICITY":0.00017179,"INCLINATION":53.1369,"RA_OF_ASC_NODE":189.5235,"ARG_OF_PERICENTER":100.5307,"MEAN_ANOMALY":340.8847,"EPHEMERIS_TYPE":0,"CLASSIFICATION_TYPE":"U","NORAD_CAT_ID":48467,"ELEMENT_SET_NO":999,"REV_AT_EPOCH":579,"BSTAR":0.055721762,"MEAN_MOTION_DOT":0.01563591,"MEAN_MOTION_DDOT":0},{"OBJECT_NAME":"YAOGAN-43 01G","OBJECT_ID":"2024-148G","EPOCH":"2026-03-09T10:38:37.087584","MEAN_MOTION":15.28332833,"ECCENTRICITY":0.00073829,"INCLINATION":35.0006,"RA_OF_ASC_NODE":62.0013,"ARG_OF_PERICENTER":306.3543,"MEAN_ANOMALY":53.6492,"EPHEMERIS_TYPE":0,"CLASSIFICATION_TYPE":"U","NORAD_CAT_ID":60464,"ELEMENT_SET_NO":999,"REV_AT_EPOCH":8700,"BSTAR":0.00035872736,"MEAN_MOTION_DOT":0.00010133,"MEAN_MOTION_DDOT":0}]
